
STARLINK-5166           
1 54085U 22136AL  25041.08544491  .00001127  00000+0  88872-4 0  9990
2 54085  53.2185 296.6298 0001538 100.4411 259.6754 15.08844756128184
STARLINK-5211           
1 54086U 22136AM  25040.95523841  .00000160  00000+0  28129-4 0  9997
2 54086  53.2172 282.2801 0001403  85.1136 275.0017 15.08841095128374
STARLINK-5184           
1 54087U 22136AN  25041.11388130  .00000225  00000+0  32214-4 0  9999
2 54087  53.2173 296.1042 0001596  87.3090 272.8085 15.08839317128197
STARLINK-5153           
1 54088U 22136AP  25040.95938160  .00000910  00000+0  75300-4 0  9999
2 54088  53.2190 297.2643 0001636  98.7292 261.3885 15.08835517127694
STARLINK-5143           
1 54089U 22136AQ  25041.06975326 -.00000020  00000+0  16819-4 0  9991
2 54089  53.2188 296.5323 0001019  94.7795 265.3313 15.08837617128186
STARLINK-5177           
1 54090U 22136AR  25041.07343638  .00001340  00000+0  10229-3 0  9992
2 54090  53.2189 296.5550 0001471 102.4151 257.7006 15.08838813128189
STARLINK-5221           
1 54091U 22136AS  25041.11021300 -.00000174  00000+0  71759-5 0  9999
2 54091  53.2174 296.0772 0001505  87.4097 272.7067 15.08834881128190
STARLINK-5190           
1 54092U 22136AT  25041.00333663  .00062450  00000+0  16676-2 0  9994
2 54092  53.1890 250.8406 0006141 164.8422 195.2767 15.37527827128827
STARLINK-5213           
1 54093U 22136AU  25041.12493008 -.00000453  00000+0 -10381-4 0  9994
2 54093  53.2166 296.1631 0001392  86.3446 273.7705 15.08853046128192
STARLINK-5219           
1 54094U 22136AV  25041.39726313  .00001545  00000+0  11514-3 0  9991
2 54094  53.2172 295.0210 0001444  91.6093 268.5064 15.08841107128236
STARLINK-5193           
1 54095U 22136AW  25040.91884387  .00000574  00000+0  54164-4 0  9995
2 54095  53.2167 297.0077 0001547  97.8186 262.2982 15.08842852127696
STARLINK-5188           
1 54096U 22136AX  25040.99614264  .00000444  00000+0  45965-4 0  9994
2 54096  53.2174 296.7833 0001380  92.6673 267.4477 15.08837873128177
STARLINK-5197           
1 54097U 22136AY  25040.93774370 -.00000564  00000+0 -17349-4 0  9994
2 54097  53.2169 272.1866 0001463  95.8660 264.2499 15.08831562128043
STARLINK-5217           
1 54098U 22136AZ  25040.91620249  .00002301  00000+0  16260-3 0  9997
2 54098  53.2178 297.6849 0001520  93.9802 266.1364 15.08845959127684
STARLINK-5198           
1 54099U 22136BA  25040.97403732  .00001480  00000+0  11107-3 0  9992
2 54099  53.2204 296.6426 0001921  97.9112 262.2099 15.08836398128172
STARLINK-5185           
1 54100U 22136BB  25041.12124587  .00000729  00000+0  63892-4 0  9995
2 54100  53.2168 296.1410 0001478  87.5120 272.6041 15.08845397128196
STARLINK-5204           
1 54101U 22136BC  25041.05550763  .00001235  00000+0  95632-4 0  9997
2 54101  53.2171 281.4860 0001411  89.8416 270.2737 15.08846101128399
STARLINK-5179           
1 54102U 22136BD  25040.95200947  .00000617  00000+0  56882-4 0  9999
2 54102  53.2181 297.2066 0001362  95.6546 264.4602 15.08839042127692
STARLINK-5200           
1 54103U 22136BE  25040.92438713 -.00000076  00000+0  13346-4 0  9999
2 54103  53.2163 277.0994 0001357  85.6366 274.4781 15.08830316127977
STARLINK-5203           
1 54104U 22136BF  25040.90181109  .00001338  00000+0  10216-3 0  9995
2 54104  53.2165 261.9723 0001924  95.6820 264.4392 15.08841769128183
COSMOS 2561             
1 54109U 22137A   25040.91092243  .00015160  00000+0  40804-3 0  9996
2 54109  96.9884 115.8513 0013573  34.9745 325.2390 15.37850914130359
ONEWEB-0490             
1 54113U 22138A   25041.53849432  .00000096  00000+0  20731-3 0  9990
2 54113  87.9148  42.6839 0001930  92.8292 267.3062 13.19727370112853
ONEWEB-0492             
1 54114U 22138B   25040.95724109  .00000155  00000+0  35487-3 0  9999
2 54114  87.9155  42.8157 0002111  89.9723 270.1652 13.19725059111910
ONEWEB-0495             
1 54115U 22138C   25041.54167459  .00000074  00000+0  15355-3 0  9997
2 54115  87.9153  42.7108 0002290 106.7905 253.3479 13.19725851112845
ONEWEB-0497             
1 54116U 22138D   25040.94775399  .00000145  00000+0  33001-3 0  9996
2 54116  87.9149  42.8069 0001909  92.4075 267.7276 13.19728172111889
ONEWEB-0499             
1 54117U 22138E   25041.53692026  .00000063  00000+0  12441-3 0  9992
2 54117  87.9155  42.7013 0001558  99.1780 260.9528 13.19725660112843
ONEWEB-0500             
1 54118U 22138F   25041.54007392  .00000115  00000+0  25507-3 0  9995
2 54118  87.9149  42.6895 0001909  88.2274 271.9077 13.19725502112858
ONEWEB-0501             
1 54119U 22138G   25040.96355891  .00000097  00000+0  20925-3 0  9999
2 54119  87.9150  42.7995 0002019 103.0550 257.0809 13.19724786111882
ONEWEB-0502             
1 54120U 22138H   25040.94934470  .00000137  00000+0  30964-3 0  9994
2 54120  87.9149  42.7881 0001827  99.7033 260.4306 13.19724885111902
ONEWEB-0503             
1 54121U 22138J   25041.46900535  .00000065  00000+0  12976-3 0  9991
2 54121  87.9147  42.6903 0001506  89.4859 270.6446 13.19725314112830
ONEWEB-0504             
1 54122U 22138K   25040.69819722  .00000133  00000+0  30077-3 0  9991
2 54122  87.9149  42.8555 0001683  99.9556 260.1767 13.19726120111873
ONEWEB-0505             
1 54123U 22138L   25041.52902558  .00000056  00000+0  10787-3 0  9995
2 54123  87.9149  42.6814 0002000 108.2800 251.8551 13.19724793112839
ONEWEB-0506             
1 54124U 22138M   25040.89721744 -.00000070  00000+0 -20820-3 0  9998
2 54124  87.9148  42.8042 0001947  95.3089 264.8266 13.19726856111870
ONEWEB-0507             
1 54125U 22138N   25041.52428741  .00000047  00000+0  84571-4 0  9997
2 54125  87.9157  42.7207 0001973  94.7144 265.4214 13.19724522112876
ONEWEB-0508             
1 54126U 22138P   25040.91459778 -.00000040  00000+0 -13296-3 0  9994
2 54126  87.9154  42.8290 0002190  99.2030 260.9351 13.19725732111902
ONEWEB-0509             
1 54127U 22138Q   25040.96513265  .00000031  00000+0  45727-4 0  9995
2 54127  87.9147  42.7897 0001869  93.3089 266.8257 13.19724269112756
ONEWEB-0510             
1 54128U 22138R   25041.46992422  .00000081  00000+0  16715-3 0  9997
2 54128  87.9286  12.2688 0002010  77.3525 282.7833 13.20771160115278
ONEWEB-0511             
1 54129U 22138S   25041.49269590  .00000102  00000+0  22288-3 0  9990
2 54129  87.9147  42.6892 0001512  93.8935 266.2371 13.19725022112852
ONEWEB-0512             
1 54130U 22138T   25040.95408003  .00000141  00000+0  32087-3 0  9997
2 54130  87.9156  42.8312 0001874 104.1345 255.9996 13.19725292111884
ONEWEB-0513             
1 54131U 22138U   25041.53139943  .00000046  00000+0  81563-4 0  9995
2 54131  87.9155  42.7048 0001619 106.8481 253.2829 13.19724127112711
ONEWEB-0514             
1 54132U 22138V   25040.96986934  .00000052  00000+0  96813-4 0  9993
2 54132  87.9152  42.8034 0001802  88.1727 271.9612 13.19723734111904
ONEWEB-0515             
1 54133U 22138W   25041.15426562  .00000035  00000+0  54222-4 0  9991
2 54133  87.9284  12.3092 0002596  67.0540 293.0867 13.20770192115225
ONEWEB-0516             
1 54134U 22138X   25041.24787704  .00000086  00000+0  18165-3 0  9991
2 54134  87.9156  42.7751 0002003  92.1284 268.0078 13.19725356112818
ONEWEB-0517             
1 54135U 22138Y   25041.53060165  .00000080  00000+0  16790-3 0  9995
2 54135  87.9150  42.6872 0001459  90.5007 269.6292 13.19725608112854
ONEWEB-0518             
1 54136U 22138Z   25041.24629200  .00000120  00000+0  26812-3 0  9996
2 54136  87.9156  42.7718 0001757  91.0190 269.1144 13.19725362112815
ONEWEB-0519             
1 54137U 22138AA  25040.96829748  .00000065  00000+0  12963-3 0  9994
2 54137  87.9149  42.7929 0001559  90.5361 269.5950 13.19724634111916
ONEWEB-0520             
1 54138U 22138AB  25040.69978170  .00000126  00000+0  28247-3 0  9999
2 54138  87.9148  42.8499 0002056 100.1731 259.9634 13.19725226111865
ONEWEB-0521             
1 54139U 22138AC  25040.96040096  .00000132  00000+0  29742-3 0  9995
2 54139  87.9147  42.7872 0001619  83.8207 276.3110 13.19725065111849
ONEWEB-0522             
1 54140U 22138AD  25041.54639685  .00000053  00000+0  10120-3 0  9992
2 54140  87.9149  42.6720 0001990  90.2994 269.8366 13.19725473112834
ONEWEB-0523             
1 54141U 22138AE  25041.14164506  .00000032  00000+0  46807-4 0  9993
2 54141  87.9286  12.3413 0002070  56.8570 303.2761 13.20772511115223
ONEWEB-0524             
1 54142U 22138AF  25041.20634582  .00000018  00000+0  13102-4 0  9993
2 54142  87.9286  12.3306 0002758  74.0410 286.1027 13.20771249115235
ONEWEB-0525             
1 54143U 22138AG  25040.95882375  .00000047  00000+0  85939-4 0  9999
2 54143  87.9149  42.8046 0001912  99.8759 260.2590 13.19725463111908
ONEWEB-0526             
1 54144U 22138AH  25041.52270764  .00000047  00000+0  84261-4 0  9994
2 54144  87.9149  42.6829 0001958  92.1218 268.0139 13.19724547112821
ONEWEB-0529             
1 54145U 22138AJ  25041.52586827  .00000049  00000+0  88860-4 0  9996
2 54145  87.9158  42.7149 0001979  97.2220 262.9138 13.19724316112848
ONEWEB-0531             
1 54146U 22138AK  25041.34366446  .00000137  00000+0  30443-3 0  9991
2 54146  87.9286  12.2963 0002329  60.3845 299.7520 13.20771901115256
ONEWEB-0535             
1 54147U 22138AL  25041.48316963 -.00022188  00000+0 -55502-1 0  9999
2 54147  87.9147  42.6874 0001736  60.8207 299.3100 13.19832544112851
ONEWEB-0536             
1 54148U 22138AM  25041.17952399  .00000031  00000+0  43758-4 0  9999
2 54148  87.9286  12.3757 0002480  60.6615 299.4766 13.20770606115223
GONETS-M 23             
1 54150U 22139A   25041.34021464  .00000058  00000+0  34763-3 0  9996
2 54150  82.5059 293.9208 0020484 213.8660 146.1113 12.42884581104547
